[{"OBJECT_NAME":"OBJECT B","OBJECT_ID":"2024-092B","EPOCH":"2026-03-09T22:35:16.756224","MEAN_MOTION":15.26654665,"ECCENTRICITY":0.00097063,"INCLINATION":97.6334,"RA_OF_ASC_NODE":195.5822,"ARG_OF_PERICENTER":166.5945,"MEAN_ANOMALY":193.5553,"EPHEMERIS_TYPE":0,"CLASSIFICATION_TYPE":"U","NORAD_CAT_ID":59774,"ELEMENT_SET_NO":999,"REV_AT_EPOCH":10038,"BSTAR":0.00052893964,"MEAN_MOTION_DOT":0.00013825,"MEAN_MOTION_DDOT":0},{"OBJECT_NAME":"STARLINK-33847","OBJECT_ID":"2025-085X","EPOCH":"2026-03-09T21:53:36.218400","MEAN_MOTION":15.27589031,"ECCENTRICITY":9.377e-5,"INCLINATION":43.0015,"RA_OF_ASC_NODE":29.6836,"ARG_OF_PERICENTER":250.3536,"MEAN_ANOMALY":109.7215,"EPHEMERIS_TYPE":0,"CLASSIFICATION_TYPE":"U","NORAD_CAT_ID":63685,"ELEMENT_SET_NO":999,"REV_AT_EPOCH":4890,"BSTAR":0.001107487,"MEAN_MOTION_DOT":0.00030347,"MEAN_MOTION_DDOT":0}]
